CYGNUS NG-23            
1 65616U 25208A   26014.88606923  .00006740  00000+0  12902-3 0  9999
2 65616  51.6333 338.3791 0007761  18.9639 341.1637 15.49293899   226
DRAGONFLY               
1 65729U 98067XH  26015.02202477  .00289919  41679-4  98445-3 0  9999
2 65729  51.6202 323.4548 0007953 112.5130 247.6717 15.89333263 18425
1998-067XK              
1 65731U 98067XK  26015.03467124  .00093754  00000+0  64640-3 0  9993
2 65731  51.6286 327.3601 0004774  83.2269 276.9273 15.73810573 18371
RSP-03                  
1 65732U 98067XL  26014.94837050  .00156955  00000+0  80883-3 0  9992
2 65732  51.6253 326.0047 0005853  93.0090 267.1581 15.80144693 18393
GHS-01                  
1 65733U 98067XM  26015.09722476  .00830321  35080-3  13065-2 0  9998
2 65733  51.6217 320.9413 0007866 131.9439 228.2244 16.03278353 18479
YOTSUBA-KULOVER         
1 65941U 98067XN  26014.98075437  .00055638  00000+0  56000-3 0  9991
2 65941  51.6288 332.2638 0004115 105.1676 254.9774 15.64859349 15054
BOTAN                   
1 65942U 98067XP  26014.94445475  .00105753  00000+0  79359-3 0  9997
2 65942  51.6265 330.5094 0004829 104.2748 255.8787 15.71768883 15075
E-KAGAKU-1              
1 65943U 98067XQ  26014.27817244  .00060017  00000+0  60563-3 0  9991
2 65943  51.6306 335.8283 0002683 102.0285 258.1011 15.64767844 14947
HRC MONOBLOCK CAMERA    
1 66052U 98067XR  26015.12533683  .00023767  00000+0  33275-3 0  9991
2 66052  51.6307 334.7303 0001136   4.2967 355.8034 15.56668740 14039
HTV-X1                  
1 66174U 25241A   26014.88606923  .00006740  00000+0  12902-3 0  9996
2 66174  51.6333 338.3791 0007761  18.9639 341.1637 15.49293899   518
SZ-21 MODULE            
1 66515U 25246C   26014.50013990  .00022256  00000+0  22760-3 0  9998
2 66515  41.4740 175.9087 0002003 169.7088 190.3794 15.64482120  9573
SHENZHOU-22             
1 66645U 25272A   26014.81534950  .00011697  00000+0  14132-3 0  9990
2 66645  41.4652 175.6948 0011406 285.7845  74.1736 15.60511354267646
